IRIDIUM 138             
1 43071U 17083B   26196.85179442  .00000136  00000+0  41325-4 0  9996
2 43071  86.3999 309.7332 0002056  92.1620 267.9812 14.34218786448242
IRIDIUM 116             
1 43072U 17083C   26196.82008187  .00000135  00000+0  41009-4 0  9999
2 43072  86.3986 310.0322 0002460  98.2597 261.8878 14.34217958448270
IRIDIUM 130             
1 43073U 17083D   26196.85814118  .00000136  00000+0  41435-4 0  9996
2 43073  86.3993 310.2943 0002271 100.5072 259.6380 14.34218104448227
IRIDIUM 151             
1 43074U 17083E   26196.83276862  .00000128  00000+0  38687-4 0  9999
2 43074  86.3986 310.0853 0002247  95.1346 265.0107 14.34218240448245
IRIDIUM 134             
1 43075U 17083F   26196.87082404  .00000072  00000+0  18566-4 0  9993
2 43075  86.3989 310.0778 0002221  94.9825 265.1625 14.34218032448218
IRIDIUM 137             
1 43076U 17083G   26196.81374165  .00000084  00000+0  22774-4 0  9995
2 43076  86.3992 310.1952 0002708  93.4974 266.6531 14.34218184448273
IRIDIUM 141             
1 43077U 17083H   26197.22600870  .00000084  00000+0  22762-4 0  9994
2 43077  86.3985 309.8518 0002177  93.0738 267.0707 14.34217843448331
IRIDIUM 153             
1 43078U 17083J   26197.17818744  .00000067  00000+0  16983-4 0  9999
2 43078  86.3958 278.3508 0002119  94.6638 265.4800 14.34217915449431
IRIDIUM 131             
1 43079U 17083K   26196.86448095  .00000111  00000+0  32458-4 0  9998
2 43079  86.3990 310.1907 0002233  93.6435 266.5016 14.34218505448219
IRIDIUM 144             
1 43249U 18030A   26197.18453022  .00000070  00000+0  18000-4 0  9993
2 43249  86.3956 278.2766 0002394  96.4820 263.6648 14.34218048434298
IRIDIUM 149             
1 43250U 18030B   26197.19087294  .00000096  00000+0  27369-4 0  9996
2 43250  86.3955 278.2406 0002262  93.1099 267.0356 14.34218163434311
IRIDIUM 157             
1 43251U 18030C   26197.20990294  .00000138  00000+0  42309-4 0  9990
2 43251  86.3959 278.2867 0002261  94.1530 265.9924 14.34218268434298
IRIDIUM 140             
1 43252U 18030D   26197.22893112  .00000144  00000+0  44472-4 0  9994
2 43252  86.3958 278.2912 0002245  95.6747 264.4705 14.34217906434353
IRIDIUM 145             
1 43253U 18030E   26196.30925224  .00000115  00000+0  33887-4 0  9999
2 43253  86.3957 278.6477 0002543 100.4482 259.7000 14.34217461434154
IRIDIUM 146             
1 43254U 18030F   26197.19721573  .00000066  00000+0  16622-4 0  9992
2 43254  86.3958 278.2888 0002387  96.2850 263.8618 14.34217619434296
IRIDIUM 148             
1 43255U 18030G   26197.16550549  .00000142  00000+0  43622-4 0  9998
2 43255  86.3959 278.3454 0002340  93.2581 266.8882 14.34218248434324
IRIDIUM 142             
1 43256U 18030H   26196.78494748  .00000085  00000+0  23365-4 0  9992
2 43256  86.3954 278.3925 0002445  96.7055 263.4419 14.34218049434231
IRIDIUM 150             
1 43257U 18030J   26196.19508457 -.00000181  00000+0 -71753-4 0  9994
2 43257  86.3956 278.7566 0002169  95.4767 264.6676 14.34216004434178
IRIDIUM 143             
1 43258U 18030K   26197.22258720  .00000083  00000+0  22734-4 0  9999
2 43258  86.3962 278.4207 0002328  96.6241 263.5220 14.34217700434258
IRIDIUM 161             
1 43478U 18047C   26197.14928095  .00000159  00000+0  41370-4 0  9992
2 43478  86.4461  76.3591 0002246  80.8661 279.2793 14.43276000429316
IRIDIUM 152             
1 43479U 18047D   26197.12553613  .00000065  00000+0  16245-4 0  9990
2 43479  86.3934  76.2302 0002155  83.5113 276.6328 14.34218417426636
IRIDIUM 147             
1 43480U 18047E   26197.13187803  .00000078  00000+0  20614-4 0  9996
2 43480  86.3937  76.2334 0002270  88.7004 271.4452 14.34217378426636
IRIDIUM 110             
1 43481U 18047F   26197.13821911  .00000150  00000+0  46501-4 0  9996
2 43481  86.3939  76.3233 0002089  77.2386 282.9043 14.34218871426623
IRIDIUM 162             
1 43482U 18047G   26197.14298427  .00000182  00000+0  48239-4 0  9993
2 43482  86.4458  76.2523 0002194  87.0234 273.1218 14.43278775429303
IRIDIUM 160             
1 43569U 18061A   26197.08405587  .00000133  00000+0  40555-4 0  9994
2 43569  86.3940  44.7098 0002228  86.8692 273.2759 14.34217316417519
IRIDIUM 166             
1 43570U 18061B   26197.10942708  .00000051  00000+0  11121-4 0  9996
2 43570  86.3938  44.6494 0002278  89.7065 270.4391 14.34217746417549
IRIDIUM 158             
1 43571U 18061C   26197.07771343  .00000071  00000+0  18224-4 0  9991
2 43571  86.3939  44.6723 0002086  88.3727 271.7708 14.34217912417500
IRIDIUM 165             
1 43572U 18061D   26197.10308525  .00000034  00000+0  49603-5 0  9999
2 43572  86.3940  44.7086 0002285  90.7910 269.3548 14.34217160417531
IRIDIUM 155             
1 43573U 18061E   26197.06502839  .00000081  00000+0  21763-4 0  9997
2 43573  86.3936  44.5925 0002103  89.7267 270.4170 14.34217738417499
IRIDIUM 154             
1 43574U 18061F   26197.11576917  .00000055  00000+0  12753-4 0  9992
2 43574  86.3940  44.7063 0002304  90.5499 269.5960 14.34217533417556
IRIDIUM 163             
1 43575U 18061G   26197.09674198  .00000030  00000+0  35099-5 0  9992
2 43575  86.3936  44.6285 0002104  86.1039 274.0397 14.34217262417527
